<?xml version="1.0" encoding="UTF-8"?>
<gpx creator="StravaGPX" version="1.1" xmlns="http://www.topografix.com/GPX/1/1" xmlns:xsi="http://www.w3.org/2001/XMLSchema-instance" xsi:schemaLocation="http://www.topografix.com/GPX/1/1 http://www.topografix.com/GPX/1/1/gpx.xsd">
 <metadata>
  <name>Dale's Hammer</name>
  <desc>Run up Higher Lane, Left onto Park Lane. Right at Parkstone Ave and then onto Hillingdon / Sunningdale / Old Hall. Right onto Ringley and left down Dales. Right at Goats Gate up RNR the Right at BNR back to the start</desc>
  <author>
   <name>Run Together Whitefield</name>
   <link href="https://www.strava.com/athletes/44862010"/>
  </author>
  <copyright author="OpenStreetMap contributors">
   <year>2020</year>
   <license>https://www.openstreetmap.org/copyright</license>
  </copyright>
  <link href="https://www.strava.com/routes/3465424416764826428"/>
 </metadata>
 <trk>
  <name>Dale's Hammer</name>
  <desc>Run up Higher Lane, Left onto Park Lane. Right at Parkstone Ave and then onto Hillingdon / Sunningdale / Old Hall. Right onto Ringley and left down Dales. Right at Goats Gate up RNR the Right at BNR back to the start</desc>
  <link href="https://www.strava.com/routes/3465424416764826428"/>
  <type>running</type>
  <trkseg>
   <trkpt lat="53.543890000000005" lon="-2.2934400000000004">
    <ele>109.76</ele>
   </trkpt>
   <trkpt lat="53.54388" lon="-2.2933600000000003">
    <ele>109.83000000000001</ele>
   </trkpt>
   <trkpt lat="53.544180000000004" lon="-2.29319">
    <ele>109.95</ele>
   </trkpt>
   <trkpt lat="53.5444" lon="-2.2943900000000004">
    <ele>111.48</ele>
   </trkpt>
   <trkpt lat="53.544500000000006" lon="-2.29481">
    <ele>111.78</ele>
   </trkpt>
   <trkpt lat="53.54468000000001" lon="-2.2953400000000004">
    <ele>112.31</ele>
   </trkpt>
   <trkpt lat="53.54482" lon="-2.29564">
    <ele>112.43</ele>
   </trkpt>
   <trkpt lat="53.544990000000006" lon="-2.29589">
    <ele>112.48</ele>
   </trkpt>
   <trkpt lat="53.545573337051216" lon="-2.2965533151035293">
    <ele>112.4</ele>
   </trkpt>
   <trkpt lat="53.546156670432275" lon="-2.2972166484908048">
    <ele>112.4</ele>
   </trkpt>
   <trkpt lat="53.54674000000001" lon="-2.29788">
    <ele>112.71000000000001</ele>
   </trkpt>
   <trkpt lat="53.546890000000005" lon="-2.29806">
    <ele>112.78</ele>
   </trkpt>
   <trkpt lat="53.546980000000005" lon="-2.2990000000000004">
    <ele>112.79</ele>
   </trkpt>
   <trkpt lat="53.54695" lon="-2.29955">
    <ele>113.15</ele>
   </trkpt>
   <trkpt lat="53.54693" lon="-2.29982">
    <ele>113.29</ele>
   </trkpt>
   <trkpt lat="53.54668" lon="-2.30084">
    <ele>114.34</ele>
   </trkpt>
   <trkpt lat="53.54652" lon="-2.30118">
    <ele>114.02000000000001</ele>
   </trkpt>
   <trkpt lat="53.54628" lon="-2.30153">
    <ele>113.42</ele>
   </trkpt>
   <trkpt lat="53.5456750024948" lon="-2.3023100112041144">
    <ele>112.55000000000001</ele>
   </trkpt>
   <trkpt lat="53.54507" lon="-2.30309">
    <ele>111.68</ele>
   </trkpt>
   <trkpt lat="53.544404011056116" lon="-2.303904051227976">
    <ele>111.30000000000001</ele>
   </trkpt>
   <trkpt lat="53.543738016584776" lon="-2.304718076839658">
    <ele>111.23</ele>
   </trkpt>
   <trkpt lat="53.54307201658625" lon="-2.3055320768362635">
    <ele>108.69000000000001</ele>
   </trkpt>
   <trkpt lat="53.54240601106086" lon="-2.306346051219008">
    <ele>106.99000000000001</ele>
   </trkpt>
   <trkpt lat="53.541740000000004" lon="-2.30716">
    <ele>107.01</ele>
   </trkpt>
   <trkpt lat="53.54155" lon="-2.30721">
    <ele>107.03000000000002</ele>
   </trkpt>
   <trkpt lat="53.541520000000006" lon="-2.30721">
    <ele>107.03000000000002</ele>
   </trkpt>
   <trkpt lat="53.541450000000005" lon="-2.30716">
    <ele>107.02</ele>
   </trkpt>
   <trkpt lat="53.541250000000005" lon="-2.3069100000000002">
    <ele>106.96000000000001</ele>
   </trkpt>
   <trkpt lat="53.540800000000004" lon="-2.30606">
    <ele>105.97000000000001</ele>
   </trkpt>
   <trkpt lat="53.54046" lon="-2.3055000000000003">
    <ele>105.75000000000001</ele>
   </trkpt>
   <trkpt lat="53.54016000000001" lon="-2.30493">
    <ele>106.65</ele>
   </trkpt>
   <trkpt lat="53.540090000000006" lon="-2.30485">
    <ele>106.65</ele>
   </trkpt>
   <trkpt lat="53.53998000000001" lon="-2.3048200000000003">
    <ele>106.76</ele>
   </trkpt>
   <trkpt lat="53.53935999991182" lon="-2.304669997759233">
    <ele>106.88</ele>
   </trkpt>
   <trkpt lat="53.538740000000004" lon="-2.30452">
    <ele>106.77</ele>
   </trkpt>
   <trkpt lat="53.53855000000001" lon="-2.3044800000000003">
    <ele>106.59</ele>
   </trkpt>
   <trkpt lat="53.53859500500512" lon="-2.305574998934638">
    <ele>107.46000000000001</ele>
   </trkpt>
   <trkpt lat="53.53864" lon="-2.30667">
    <ele>107.86000000000001</ele>
   </trkpt>
   <trkpt lat="53.53882" lon="-2.30695">
    <ele>107.65</ele>
   </trkpt>
   <trkpt lat="53.539" lon="-2.3071800000000002">
    <ele>107.32000000000001</ele>
   </trkpt>
   <trkpt lat="53.538990000000005" lon="-2.30716">
    <ele>107.32000000000001</ele>
   </trkpt>
   <trkpt lat="53.53965" lon="-2.3079500000000004">
    <ele>106.50000000000001</ele>
   </trkpt>
   <trkpt lat="53.54014500020265" lon="-2.3082249967218917">
    <ele>107.56</ele>
   </trkpt>
   <trkpt lat="53.54064" lon="-2.3085">
    <ele>108.34</ele>
   </trkpt>
   <trkpt lat="53.54064" lon="-2.30877">
    <ele>108.89000000000001</ele>
   </trkpt>
   <trkpt lat="53.54073" lon="-2.30898">
    <ele>108.89000000000001</ele>
   </trkpt>
   <trkpt lat="53.54133250370706" lon="-2.3095224768586573">
    <ele>112.33000000000001</ele>
   </trkpt>
   <trkpt lat="53.54193500495926" lon="-2.310064969159192">
    <ele>115.82000000000001</ele>
   </trkpt>
   <trkpt lat="53.54253750375646" lon="-2.3106074769023204">
    <ele>117.70000000000002</ele>
   </trkpt>
   <trkpt lat="53.54314" lon="-2.31115">
    <ele>119.13000000000001</ele>
   </trkpt>
   <trkpt lat="53.543620000000004" lon="-2.31156">
    <ele>119.07000000000001</ele>
   </trkpt>
   <trkpt lat="53.543780000000005" lon="-2.31155">
    <ele>119.16000000000001</ele>
   </trkpt>
   <trkpt lat="53.543940000000006" lon="-2.3114500000000002">
    <ele>119.32000000000001</ele>
   </trkpt>
   <trkpt lat="53.54412000000001" lon="-2.31108">
    <ele>120.05</ele>
   </trkpt>
   <trkpt lat="53.544180000000004" lon="-2.31108">
    <ele>120.05</ele>
   </trkpt>
   <trkpt lat="53.54477000000001" lon="-2.31189">
    <ele>123.22000000000001</ele>
   </trkpt>
   <trkpt lat="53.545120000000004" lon="-2.31233">
    <ele>125.4</ele>
   </trkpt>
   <trkpt lat="53.54560000000001" lon="-2.31122">
    <ele>126.46000000000001</ele>
   </trkpt>
   <trkpt lat="53.54603" lon="-2.3102">
    <ele>127.94</ele>
   </trkpt>
   <trkpt lat="53.546515004057824" lon="-2.309215011263977">
    <ele>130.15</ele>
   </trkpt>
   <trkpt lat="53.547000000000004" lon="-2.30823">
    <ele>131.08</ele>
   </trkpt>
   <trkpt lat="53.54711" lon="-2.30804">
    <ele>130.94</ele>
   </trkpt>
   <trkpt lat="53.547230000000006" lon="-2.30775">
    <ele>130.24</ele>
   </trkpt>
   <trkpt lat="53.547230000000006" lon="-2.30776">
    <ele>130.26000000000002</ele>
   </trkpt>
   <trkpt lat="53.54731" lon="-2.3075900000000003">
    <ele>129.9</ele>
   </trkpt>
   <trkpt lat="53.547535002310504" lon="-2.3068500038461646">
    <ele>128.57999999999998</ele>
   </trkpt>
   <trkpt lat="53.547760000000004" lon="-2.3061100000000003">
    <ele>126.73</ele>
   </trkpt>
   <trkpt lat="53.54803000469512" lon="-2.305045006933059">
    <ele>124.83000000000001</ele>
   </trkpt>
   <trkpt lat="53.548300000000005" lon="-2.30398">
    <ele>123.03000000000002</ele>
   </trkpt>
   <trkpt lat="53.548610000000004" lon="-2.30295">
    <ele>121.3</ele>
   </trkpt>
   <trkpt lat="53.5489150024189" lon="-2.3021750058037966">
    <ele>120.54</ele>
   </trkpt>
   <trkpt lat="53.549220000000005" lon="-2.3014">
    <ele>119.84000000000002</ele>
   </trkpt>
   <trkpt lat="53.549440000000004" lon="-2.30092">
    <ele>119.42000000000002</ele>
   </trkpt>
   <trkpt lat="53.54959" lon="-2.30098">
    <ele>119.32000000000001</ele>
   </trkpt>
   <trkpt lat="53.549960000000006" lon="-2.30099">
    <ele>118.70000000000002</ele>
   </trkpt>
   <trkpt lat="53.55019000000001" lon="-2.30105">
    <ele>118.35000000000001</ele>
   </trkpt>
   <trkpt lat="53.55064000078911" lon="-2.3014849953743113">
    <ele>116.28</ele>
   </trkpt>
   <trkpt lat="53.55109" lon="-2.3019200000000004">
    <ele>115.57000000000001</ele>
   </trkpt>
   <trkpt lat="53.55144000000001" lon="-2.3022">
    <ele>114.69000000000001</ele>
   </trkpt>
   <trkpt lat="53.55187" lon="-2.3025900000000004">
    <ele>113.63000000000001</ele>
   </trkpt>
   <trkpt lat="53.55243" lon="-2.30296">
    <ele>112.26</ele>
   </trkpt>
   <trkpt lat="53.55317" lon="-2.30315">
    <ele>110.39000000000001</ele>
   </trkpt>
   <trkpt lat="53.553490000000004" lon="-2.3031800000000002">
    <ele>109.69000000000001</ele>
   </trkpt>
   <trkpt lat="53.55435000000001" lon="-2.30316">
    <ele>107.55000000000001</ele>
   </trkpt>
   <trkpt lat="53.554610000000004" lon="-2.30316">
    <ele>107.16</ele>
   </trkpt>
   <trkpt lat="53.554500000000004" lon="-2.3024400000000003">
    <ele>107.2</ele>
   </trkpt>
   <trkpt lat="53.55432500468088" lon="-2.3013799955867804">
    <ele>107.44000000000001</ele>
   </trkpt>
   <trkpt lat="53.55415000000001" lon="-2.30032">
    <ele>107.56</ele>
   </trkpt>
   <trkpt lat="53.553985003599394" lon="-2.29938999633147">
    <ele>107.08000000000001</ele>
   </trkpt>
   <trkpt lat="53.55382" lon="-2.2984600000000004">
    <ele>106.25000000000001</ele>
   </trkpt>
   <trkpt lat="53.55373" lon="-2.29808">
    <ele>106.25000000000001</ele>
   </trkpt>
   <trkpt lat="53.55344" lon="-2.2974200000000002">
    <ele>106.10000000000001</ele>
   </trkpt>
   <trkpt lat="53.55330000000001" lon="-2.29726">
    <ele>106.22000000000001</ele>
   </trkpt>
   <trkpt lat="53.552960000000006" lon="-2.2970800000000002">
    <ele>106.64000000000001</ele>
   </trkpt>
   <trkpt lat="53.552310000000006" lon="-2.2965400000000002">
    <ele>107.96000000000001</ele>
   </trkpt>
   <trkpt lat="53.55189000000001" lon="-2.29625">
    <ele>108.83000000000001</ele>
   </trkpt>
   <trkpt lat="53.551570000000005" lon="-2.29611">
    <ele>109.79</ele>
   </trkpt>
   <trkpt lat="53.551140000000004" lon="-2.29582">
    <ele>109.62</ele>
   </trkpt>
   <trkpt lat="53.550335000808836" lon="-2.2953549911009685">
    <ele>109.39000000000001</ele>
   </trkpt>
   <trkpt lat="53.549530000000004" lon="-2.29489">
    <ele>109.24</ele>
   </trkpt>
   <trkpt lat="53.549060000365735" lon="-2.2945749964694997">
    <ele>109.52000000000001</ele>
   </trkpt>
   <trkpt lat="53.548590000000004" lon="-2.29426">
    <ele>109.51</ele>
   </trkpt>
   <trkpt lat="53.54822000000001" lon="-2.29394">
    <ele>109.36000000000001</ele>
   </trkpt>
   <trkpt lat="53.54786000000001" lon="-2.2935800000000004">
    <ele>108.96000000000001</ele>
   </trkpt>
   <trkpt lat="53.547290000000004" lon="-2.29304">
    <ele>108.6</ele>
   </trkpt>
   <trkpt lat="53.546755000700536" lon="-2.2926099945078398">
    <ele>108.35000000000001</ele>
   </trkpt>
   <trkpt lat="53.546220000000005" lon="-2.29218">
    <ele>107.63</ele>
   </trkpt>
   <trkpt lat="53.54547" lon="-2.29163">
    <ele>107.02</ele>
   </trkpt>
   <trkpt lat="53.545" lon="-2.2913300000000003">
    <ele>107.07000000000001</ele>
   </trkpt>
   <trkpt lat="53.54495000000001" lon="-2.29136">
    <ele>107.07000000000001</ele>
   </trkpt>
   <trkpt lat="53.54448000011471" lon="-2.2911499976372736">
    <ele>107.21000000000001</ele>
   </trkpt>
   <trkpt lat="53.54401000000001" lon="-2.29094">
    <ele>107.56</ele>
   </trkpt>
   <trkpt lat="53.543960000000006" lon="-2.29103">
    <ele>107.66</ele>
   </trkpt>
   <trkpt lat="53.54388" lon="-2.2913400000000004">
    <ele>108.07000000000001</ele>
   </trkpt>
   <trkpt lat="53.543940000000006" lon="-2.29182">
    <ele>108.36000000000001</ele>
   </trkpt>
   <trkpt lat="53.544090000000004" lon="-2.29266">
    <ele>109.22000000000001</ele>
   </trkpt>
  </trkseg>
 </trk>
</gpx>
